IRIDIUM 144             
1 43249U 18030A   24278.84892537  .00001206  00000+0  42336-3 0  9992
2 43249  86.4043 189.6716 0002298  83.8794 276.2663 14.34218512341222
IRIDIUM 149             
1 43250U 18030B   24278.85527035  .00000045  00000+0  91560-5 0  9998
2 43250  86.4045 189.6431 0002467  78.5371 281.6101 14.34216545341243
IRIDIUM 157             
1 43251U 18030C   24279.15336060  .00001199  00000+0  42105-3 0  9999
2 43251  86.4043 189.5581 0002315  73.5156 286.6294 14.34225989341267
IRIDIUM 140             
1 43252U 18030D   24279.45147102  .00000036  00000+0  56945-5 0  9998
2 43252  86.4043 189.4483 0002239  88.9422 271.2031 14.34212679341361
IRIDIUM 145             
1 43253U 18030E   24278.81085668  .00000780  00000+0  27149-3 0  9994
2 43253  86.4040 189.6886 0002594  90.0138 270.1355 14.34214827341207
IRIDIUM 146             
1 43254U 18030F   24278.79184143  .00000572  00000+0  19720-3 0  9995
2 43254  86.4039 189.7110 0002513  89.1705 270.9779 14.34219278341211
IRIDIUM 148             
1 43255U 18030G   24278.82988331  .00001563  00000+0  55100-3 0  9994
2 43255  86.4045 189.7288 0002410  80.6023 279.5445 14.34220464341258
IRIDIUM 142             
1 43256U 18030H   24279.49586737  .00001405  00000+0  49434-3 0  9991
2 43256  86.4043 189.3627 0002605  82.1357 278.0134 14.34223134341316
